     2.100          NAVIGATION                              RINEX VERSION / TYPE
fic2rin                                 12/15/2008 01:27:55 PGM / RUN BY / DATE
                                                            END OF HEADER
31 08 12 14  7 59 44.0 -.433940440416D-04 -.170530256582D-11  .000000000000D+00
     .800000000000D+01 -.155312500000D+03  .438018245218D-08  .303227855197D+01
    -.780448317528D-05  .700755906291D-02  .254251062870D-05  .515360485840D+04
     .287840000000D+05  .100582838058D-06 -.655878692232D+00  .121071934700D-06
     .970772483199D+00  .334562500000D+03 -.122519695327D+01 -.819569852660D-08
    -.314655963827D-09  .100000000000D+01  .151000000000D+04  .000000000000D+00
     .240000000000D+01  .000000000000D+00 -.130385160446D-07  .800000000000D+01
     .216060000000D+05  .400000000000D+01
 1 08 12 14  8  0  0.0 -.209827907383D-03 -.513864506502D-10  .000000000000D+00
     .250000000000D+02  .187187500000D+02  .544344102688D-08  .219333607129D+01
     .828877091408D-06  .976948055904D-02  .642985105515D-05  .515375644493D+04
     .288000000000D+05  .137835741043D-06  .137220107649D+01 -.279396772385D-07
     .934845160853D+00  .238312500000D+03 -.149151701882D+01 -.817748348215D-08
     .476448417418D-09  .100000000000D+01  .151000000000D+04  .000000000000D+00
     .240000000000D+01  .630000000000D+02 -.232830643654D-08  .250000000000D+02
     .216060000000D+05  .400000000000D+01
 2 08 12 14  8  0  0.0  .167165882885D-03 -.227373675443D-11  .000000000000D+00
     .600000000000D+02 -.202812500000D+02  .514557147656D-08 -.137092461171D+01
    -.101886689663D-05  .885492574889D-02  .781193375587D-05  .515358202553D+04
     .288000000000D+05 -.894069671631D-07  .247706082725D+01 -.135973095894D-06
     .942162074364D+00  .220062500000D+03  .268564456474D+01 -.825391523727D-08
    -.455733268834D-09  .100000000000D+01  .151000000000D+04  .000000000000D+00
     .240000000000D+01  .000000000000D+00 -.172294676304D-07  .600000000000D+02
     .216060000000D+05  .400000000000D+01
 3 08 12 14  8  0  0.0  .324538443238D-03  .522959453519D-11  .000000000000D+00
     .200000000000D+02  .148125000000D+02  .553951645738D-08 -.170204556985D+01
     .802800059319D-06  .115372210275D-01  .680610537529D-05  .515371028709D+04
     .288000000000D+05  .242143869400D-06  .133081050267D+01 -.763684511185D-07
     .925612117243D+00  .226812500000D+03  .882915249741D+00 -.824748639806D-08
     .633240662730D-09  .100000000000D+01  .151000000000D+04  .000000000000D+00
     .240000000000D+01  .000000000000D+00 -.419095158577D-08  .200000000000D+02
     .216060000000D+05  .400000000000D+01
 4 08 12 14  8  0  0.0 -.264217611402D-03 -.127329258248D-10  .000000000000D+00
     .170000000000D+02 -.169375000000D+02  .521807449660D-08  .148290865586D+01
    -.683590769768D-06  .858006824274D-02  .775419175625D-05  .515363061523D+04
     .288000000000D+05 -.782310962677D-07  .249564078948D+01  .670552253723D-07
     .941434200936D+00  .223593750000D+03  .448985618442D+00 -.826070123422D-08
    -.698957685822D-09  .100000000000D+01  .151000000000D+04  .000000000000D+00
     .240000000000D+01  .000000000000D+00 -.605359673500D-08  .170000000000D+02
     .216060000000D+05  .400000000000D+01
 5 08 12 14  8  0  0.0 -.384889077395D-03  .179625203600D-10  .000000000000D+00
     .530000000000D+02 -.978750000000D+02  .461304929488D-08  .106301305078D+01
    -.518374145031D-05  .937378045637D-02  .115782022476D-04  .515365907478D+04
     .288000000000D+05 -.160187482834D-06  .299469721933D+00 -.335276126862D-07
     .944822569367D+00  .148531250000D+03  .129443345151D+01 -.805354974839D-08
     .234295473633D-09  .100000000000D+01  .151000000000D+04  .000000000000D+00
     .685000000000D+01  .000000000000D+00 -.419095158577D-08  .530000000000D+02
     .216060000000D+05  .400000000000D+01
 6 08 12 14  8  0  0.0  .122131314129D-03 -.966338120634D-11  .000000000000D+00
     .230000000000D+02  .125937500000D+02  .551165815411D-08  .853422388239D+00
     .605359673500D-06  .559864612296D-02  .692717730999D-05  .515370151138D+04
     .288000000000D+05 -.409781932831D-07  .139709398813D+01 -.465661287308D-07
     .933104719900D+00  .234406250000D+03 -.150559954078D+01 -.843320841984D-08
     .469305262734D-09  .100000000000D+01  .151000000000D+04  .000000000000D+00
     .240000000000D+01  .000000000000D+00 -.465661287308D-08  .230000000000D+02
     .216060000000D+05  .400000000000D+01
 7 08 12 14  8  0  0.0  .235298648477D-04  .000000000000D+00  .000000000000D+00
     .940000000000D+02 -.136031250000D+03  .452161691492D-08  .313975007608D+01
    -.698119401932D-05  .230684748385D-02  .219233334064D-05  .515368921852D+04
     .288000000000D+05  .260770320892D-07 -.652977914397D+00  .596046447754D-07
     .965345801750D+00  .341906250000D+03  .288488298698D+01 -.829963142725D-08
    -.251796202608D-09  .100000000000D+01  .151000000000D+04  .000000000000D+00
     .240000000000D+01  .000000000000D+00 -.107102096081D-07  .940000000000D+02
     .216060000000D+05  .400000000000D+01
 8 08 12 14  8  0  0.0 -.182051211596D-03 -.159161572810D-11  .000000000000D+00
     .850000000000D+02 -.135156250000D+03  .404266839337D-08  .245521496478D+01
    -.691413879395D-05  .105585196288D-01  .324286520481D-05  .515370336723D+04
     .288000000000D+05 -.540167093277D-07 -.596029146824D+00  .158324837685D-06
     .986563177059D+00  .334500000000D+03  .295841333996D+01 -.795175979414D-08
    -.293940815243D-09  .100000000000D+01  .151000000000D+04  .000000000000D+00
     .240000000000D+01  .000000000000D+00 -.419095158577D-08  .850000000000D+02
     .216060000000D+05  .400000000000D+01
 9 08 12 14  8  0  0.0  .296109355986D-04  .181898940355D-11  .000000000000D+00
     .130000000000D+02 -.132687500000D+03  .415624455284D-08  .217179439337D+01
    -.716373324394D-05  .201090930495D-01  .203773379326D-05  .515366341591D+04
     .288000000000D+05  .219792127609D-06 -.688189422149D+00 -.271946191788D-06
     .974298907209D+00  .344406250000D+03  .145231950842D+01 -.787639951223D-08
    -.290369237901D-09  .100000000000D+01  .151000000000D+04  .000000000000D+00
     .240000000000D+01  .000000000000D+00 -.558793544769D-08  .130000000000D+02
     .216060000000D+05  .400000000000D+01
10 08 12 14  8  0  0.0 -.829482451081D-05 -.454747350886D-12  .000000000000D+00
     .230000000000D+02  .114625000000D+03  .413981529707D-08 -.445588655367D+00
     .609084963799D-05  .831668963656D-02  .104736536741D-04  .515375844002D+04
     .288000000000D+05  .100582838058D-06 -.272327000436D+01  .126659870148D-06
     .961094212175D+00  .177281250000D+03  .568222323278D+00 -.788175687824D-08
    -.165364030933D-09  .100000000000D+01  .151000000000D+04  .000000000000D+00
     .240000000000D+01  .000000000000D+00 -.279396772385D-08  .230000000000D+02
     .216060000000D+05  .400000000000D+01
12 08 12 14  8  0  0.0 -.333941075951D-03  .284217094304D-11  .000000000000D+00
     .410000000000D+02 -.810312500000D+02  .407909848225D-08 -.294793420614D+01
    -.426545739174D-05  .303385872394D-02  .118240714073D-04  .515376730156D+04
     .288000000000D+05  .186264514923D-08  .397427718620D+00  .204890966415D-07
     .965788177937D+00  .150531250000D+03 -.831416425477D+00 -.758245869698D-08
     .350371737246D-09  .100000000000D+01  .151000000000D+04  .000000000000D+00
     .240000000000D+01  .000000000000D+00 -.116415321827D-07  .410000000000D+02
     .216060000000D+05  .400000000000D+01
13 08 12 14  8  0  0.0  .281020533293D-03  .147792889038D-11  .000000000000D+00
     .370000000000D+02  .101843750000D+03  .402159608705D-08 -.655366267138D+00
     .527128577232D-05  .360531965271D-02  .121630728245D-05  .515377842140D+04
     .288000000000D+05 -.670552253723D-07 -.164789406696D+01 -.111758708954D-07
     .995073274350D+00  .378093750000D+03  .151661523199D+01 -.821248494010D-08
     .281083136812D-09  .100000000000D+01  .151000000000D+04  .000000000000D+00
     .240000000000D+01  .000000000000D+00 -.111758708954D-07  .370000000000D+02
     .216060000000D+05  .400000000000D+01
14 08 12 14  8  0  0.0 -.182087067515D-03  .500222085975D-11  .000000000000D+00
     .350000000000D+02  .100937500000D+03  .412374319903D-08 -.109448021532D+01
     .536255538464D-05  .442420528270D-02  .279396772385D-06  .515376803207D+04
     .288000000000D+05  .577419996262D-07 -.166638648378D+01  .353902578354D-07
     .988694936896D+00  .389937500000D+03 -.212287284455D+01 -.824891502899D-08
     .266082511976D-09  .100000000000D+01  .151000000000D+04  .000000000000D+00
     .240000000000D+01  .000000000000D+00 -.931322574615D-08  .350000000000D+02
     .216060000000D+05  .400000000000D+01
15 08 12 14  8  0  0.0 -.226402189583D-03 -.591171556152D-11  .000000000000D+00
     .390000000000D+02  .101343750000D+03  .473912597505D-08 -.419069149992D+00
     .517442822456D-05  .128951552324D-02  .123865902424D-05  .515374452400D+04
     .288000000000D+05 -.204890966415D-07 -.171373675764D+01 -.186264514923D-08
     .956918616804D+00  .353093750000D+03 -.909226425342D+00 -.847321008607D-08
     .220366321999D-09  .100000000000D+01  .151000000000D+04  .000000000000D+00
     .240000000000D+01  .000000000000D+00 -.977888703346D-08  .390000000000D+02
     .216060000000D+05  .400000000000D+01
16 08 12 14  8  0  0.0  .890688970685D-04 -.250111042988D-11  .000000000000D+00
     .840000000000D+02 -.108156250000D+03  .404766860164D-08  .794135615713D+00
    -.559724867344D-05  .484683969989D-02  .123269855976D-04  .515373221397D+04
     .288000000000D+05  .763684511185D-07  .414109844537D+00  .372529029846D-08
     .967337579344D+00  .141906250000D+03 -.382755645069D+00 -.765424740156D-08
     .374301305437D-09  .100000000000D+01  .151000000000D+04  .000000000000D+00
     .240000000000D+01  .000000000000D+00 -.977888703346D-08  .840000000000D+02
     .216060000000D+05  .400000000000D+01
